#dP2021  5  5 18  0  0.00000000      96 __u+U ITR00 EXT  IAC
## 2156 324000.00000000   900.00000000 59339 0.7500000000000
+  116   C06C07C08C09C10C11C12C13C14C16C19C20C21C22C23C24C25
+        C26C27C28C29C30C32C33C34C35C36C37C38C39C40C41C42C43
+        C44C45C46E01E02E03E04E05E07E08E09E11E12E13E14E15E18
+        E19E21E24E25E26E27E30E31E33E36G01G02G03G04G05G06G07
+        G08G09G10G12G13G14G15G16G17G18G19G20G21G22G23G24G25
+        G26G27G28G29G30G31G32J01J02J03R01R02R03R04R05R07R08
+        R09R11R12R13R14R15R16R17R18R19R20R21R22R24  0  0  0
++        10  8  8 11  8  9  7 10  9  9  7  8  8  7  8 10  7
++         8  9  8  8  7  7  8  9  9  7 10 10  9  9  8  8  9
++         8  8  8  8  7  8  7  8  8  8  9  7  6  7  8  7  8
++         8  7  8  7  5  8  8  7  7  8  7  8  7  8  7  6  8
++         7  7  6  6  7  7  7  7  8  8  8  8  7  7  7  6  7
++         7  7  6  7  7  7  8 11 10  9  7  8  8  8  8  8  9
++        10  7 10  8  8  7  8  6  8  9  9  9 10 11  0  0  0
%c M  cc GPS ccc cccc cccc cccc cccc ccccc ccccc ccccc ccccc
%c cc cc ccc ccc cccc cccc cccc cccc ccccc ccccc ccccc ccccc
%f  0.0000000  0.000000000  0.00000000000  0.000000000000000
%f  0.0000000  0.000000000  0.00000000000  0.000000000000000
%i    0    0    0    0      0      0      0      0         0
%i    0    0    0    0      0      0      0      0         0
/* IAC                                ULTRA-RAPID PREDICTION
/* S/V CLOCKS ARE ALIGNED TO GNSS TIME                      
/* G:C1WC2W R:C1PC2P E:C1XC5X C:C2IC6I J:C1CC2S             
/* PCV:IGS14_2148 OL/AL:FES2004  NONE     YN ORB:CoN CLK:CoN
*  2021 05 06  4  0  0.00000000
PC06  -8709.843044  33612.351547 -23097.477749    353.015402
PC07 -17627.041777  22497.615624  31130.708265   -192.675407
PC08 -24668.411603  33143.731831  -9230.389917   -890.309980
PC09   1128.811044  40627.745290 -10017.105864    544.728881
PC10   -487.607579  26834.545722  32759.269104    -46.652627
PC11  -2644.105827  26321.399178   8997.244723    324.469838
PC12 -12498.854091  12761.116547  21473.109095    896.206107
PC13 -13734.762374  34133.953754 -20706.030600    249.510171
PC14  -3106.319757  15793.927738 -22768.687158    653.749993
PC16  -5871.999500  35770.977641 -21218.451303   -821.535447
PC19  -7792.892351 -17861.448775  19998.737120    824.269669
PC20  11907.213589 -11913.987236  22276.740028   -929.800339
PC21 -25445.328564  -1518.286604 -11303.867455   -944.039358
PC22 -23561.269115 -13662.383361   6011.457474   -959.235822
PC23  14963.726205   8294.403653  22049.269180   -900.850590
PC24 -19282.730508  19586.115166   4887.534057   -839.442237
PC25  -1946.328900  19758.097771  19612.512048   -921.523635
PC26 -23812.799677   9223.147093 -11300.674630    911.098728
PC27  15709.931693  -2182.922179 -22981.758440    526.959581
PC28  13712.701832  18093.911493 -16229.288337    -77.871228
PC29  -4726.186198 -27506.368145    -24.688069    388.373708
PC30   8014.629430 -21003.930407 -16557.171166    465.611020
PC32  25481.069779   1295.265893  11341.843087   -937.359996
PC33   7865.431343  17829.350750 -19970.042735   -940.260869
PC34  -7662.251281  21498.895306  16026.993797   -679.977078
PC35 -14263.334518 -17933.920883  15944.692857   -294.239420
PC36   2765.511964 -19821.178460 -19425.336040   -727.750506
PC37  23891.704100  -7912.225518  12054.598728   -899.423903
PC38 -20284.550051  34602.134025 -13179.956979    146.842223
PC39  -1546.472236  37351.673601 -19321.519773     30.859095
PC40  -5994.360481  21614.541478  35719.910008    158.112878
PC41  23495.382047  13694.775524  -6200.074430   -945.157775
PC42 -12603.922419  11539.905301 -22009.079362   -917.388980
PC43   4274.149836  27557.714737    490.141666   -717.313851
PC44 -15790.502180   2432.496671  22868.966661    173.389636
PC45 -15006.018174  -8067.676410 -22101.670059    432.521356
PC46  18629.184619 -19916.517500  -5833.591719    284.064155
PE01 -25881.027112  -4329.438626 -13703.589714  -1101.765326
PE02  25935.561224   4246.903936  13600.162191    217.089354
PE03  23242.703634  14712.389490  10956.052756   -427.809584
PE04 -18408.429304   3601.024855 -22886.563037   -764.892862
PE05  14490.766814  24665.923399  -7599.674170   -283.242301
PE07   2631.194915 -20134.729620  21545.285876   -534.222413
PE08  18114.924952  -3913.556779  23091.057608   6006.656201
PE09  -2245.640761  20174.702298 -21538.967388   5677.419828
PE11 -10229.697970  27719.133255   1561.937274   6014.769273
PE12 -17735.906960  14201.591356  18956.464910   5224.860666
PE13  10393.256346 -27650.257943  -2002.151675    416.003379
PE14 -16338.395312 -14825.099718   9677.189243  -1421.174488
PE15  17630.226659 -14344.209237 -18965.003599    815.797745
PE18  23213.279080  10478.369698 -19875.288865  -1555.331070
PE19 -22860.591484 -16502.537742  -9005.231823    269.772002
PE21  -9553.840723 -14551.902788 -23944.598376   -663.290563
PE24 -13839.854815  16617.164612  20206.291797   -884.767747
PE25   9330.952551  14624.088278  23985.521200   -532.974006
PE26  -3496.504249 -24237.141120  16633.049762   1843.656553
PE27  12922.456509 -16778.741490 -20676.292822    -26.254994
PE30  28011.864008  -8472.703230  -4404.992778   2968.484787
PE31 -27658.004693   9133.810395   5282.487796   -480.868276
PE33 -14473.025687  -7402.850094  24739.795162   -468.286088
PE36   2956.840263  24644.145557 -16115.591765   -203.214070
PG01 -14066.786532  22249.139346   1290.898942    697.192118
PG02  17066.793295  -4772.920811 -19148.522051   -601.811221
PG03 -14244.326828  12729.181022 -18486.032892   -156.176222
PG04  -5832.501017  17448.200035 -19128.824446   -195.086521
PG05  25459.849302  -5130.611999   5865.372253    -41.110132
PG06  11940.948945   8632.158493 -22038.011266     13.087410
PG07  -4164.721885  23439.868968  11587.677436    142.762559
PG08 -12216.553758   8872.218103  21830.494396    -20.134309
PG09   4165.539110  23363.530387 -11963.548383   -343.685539
PG10 -16445.233583 -11875.880448  17401.472575   -116.219568
PG12  17130.904430 -10693.272618 -17431.117480    -37.233745
PG13  16065.323857    951.068913  21021.766301    128.501030
PG14  15282.019295  12945.665535  17448.478882     89.379175
PG15  11615.206804 -10677.180908  20989.175509   -151.361579
PG16 -26680.336443   -788.527068   2288.767118   -320.679161
PG17  13367.112479  22747.172097  -2606.662982    437.801890
PG18   1904.524536 -22238.542413  14338.416563    350.973949
PG19  16435.841144  17517.664178 -11741.276220     -3.719287
PG20  15762.703603 -14090.003678  15842.936203    522.472568
PG21 -16724.084060  17856.939677  10419.248943    116.112392
PG22 -21937.139087  10113.099451 -10628.796535   -621.287195
PG23  -4400.065619 -14854.527015  21558.394550    108.927815
PG24  15355.446211 -20246.430092   6749.625053     59.509927
PG25   3368.489972 -15207.436911 -21752.743383    131.865889
PG26 -25382.155148  -4113.046048  -7249.699682     81.571882
PG27 -17470.360399  -3667.203588  19613.435975   -125.131052
PG28  18894.439830  11866.279914  14816.730229    575.850067
PG29  -2522.716422 -23525.144959 -12070.720058   -342.168617
PG30   6766.748123  16572.247263  19609.087702   -422.308403
PG31 -14394.404991  -5759.773427 -21677.435455   -115.657491
PG32 -16075.002027 -20699.708119  -4733.048240     21.643482
PJ01 -26093.666782  15415.944688 -24722.369955   -374.781332
PJ02 -30052.651669  26970.669201  17116.785246      7.316320
PJ03 -26711.631753  25390.635942  25511.817015     -4.817613
PR01 -22591.174377  -9707.742928  -6749.849296     78.998949
PR02 -12696.665876   4091.076237 -21707.102729    477.504793
PR03   3885.161017  14128.225169 -20817.331791     35.432219
PR04  18098.266750  15956.000121  -8239.441802     85.518005
PR05  22111.242109   9011.638732   8963.904516     71.215813
PR07  -4539.624827 -14424.806082  20597.541465    -42.494888
PR08 -18080.282802 -16013.348975   8295.472024    -58.865953
PR09  21165.952809 -13767.373822  -3865.879103     -8.554366
PR11  -8309.823411  -7710.892235 -22840.371381     -2.441666
PR12 -21299.642568   4201.109300 -13384.771375    226.578441
PR13 -21379.856618  13526.444497   3234.590779    -54.339867
PR14  -8652.346133  14940.451956  18779.545697     63.945251
PR15   8711.806334   7661.112861  22734.045464    103.991215
PR16  21524.820185  -5207.773018  12517.756873    -14.731025
PR17  -2310.418600  25261.966050   2841.382319    421.648733
PR18   5153.347594  20912.955229 -13608.893835     75.529676
PR19   9618.669760   6649.848905 -22673.195356   -142.566080
PR20   9332.426087 -14794.449582 -18583.823965    -48.590215
PR21   1842.783531 -25380.203969  -1614.099198   -206.841907
PR22  -5412.894635 -20351.797357  14451.158040   -111.313493
PR24  -9319.000033  15516.256074  17990.162220     41.531579
EOF
